[
    {
        "Altitude(m)": 624792.8044116515,
        "Argument of Periapsis(deg)": 0.0,
        "Eccentricity": 0.0,
        "Inclination(deg)": 60.0,
        "Latitude(deg)": -59.147185614552136,
        "Longitude(deg)": -105.9736689620256,
        "Mean Anomaly(deg)": -98.18180000000001,
        "RAAN(deg)": 100.0,
        "Satellite Name": "Test1 456",
        "Satellite Number": 456,
        "Semi-Major Axis(m)": 6980739.136638005,
        "Time(s)": 0
    },
    {
        "Altitude(m)": 624842.1966315969,
        "Argument of Periapsis(deg)": 0.00010418945913296404,
        "Eccentricity": 0.0,
        "Inclination(deg)": 60.0,
        "Latitude(deg)": -59.289270029925625,
        "Longitude(deg)": -104.8441620434066,
        "Mean Anomaly(deg)": -97.56169385453816,
        "RAAN(deg)": 99.99957995086025,
        "Satellite Name": "Test1 456",
        "Satellite Number": 456,
        "Semi-Major Axis(m)": 6980739.136638005,
        "Time(s)": 10
    }
]